{
  "norad_id": 63867,
  "name": "STARLINK-33979",
  "history": [
    {
      "epoch": "2026-03-28T17:27:21.871008Z",
      "apogee_km": 574.3116035485582,
      "perigee_km": 569.7245012139865,
      "latitude_deg": -1.683892895802287e-05,
      "longitude_deg": 98.52173330830597,
      "height_km": 574.5333155846422,
      "semi_major_axis_km": 6950.155052381272,
      "eccentricity": 0.00033,
      "inclination_deg": 70.0018,
      "raan_deg": 186.5065,
      "arg_perigee_deg": 267.817,
      "mean_anomaly_deg": 92.2611,
      "mean_motion_rev_day": 14.98342236
    }
  ]
}